IRIDIUM 65 [+]          
1 25288U 98021D   17316.49073542  .00000004  00000-0 -57818-5 0  9996
2 25288  86.3967 161.9058 0001809  85.3751 274.7651 14.34221232 26276
IRIDIUM 66 [+]          
1 25289U 98021E   17316.49706466  .00000004  00000-0 -55194-5 0  9990
2 25289  86.3966 161.8053 0001790  82.6668 277.4731 14.34222058 26261
IRIDIUM 67 [+]          
1 25290U 98021F   17316.57317778  .00000020  00000-0 -67836-7 0  9991
2 25290  86.3963 161.9124 0001934  87.3692 272.7725 14.34220972 26296
IRIDIUM 68 [+]          
1 25291U 98021G   17316.50976866  .00000007  00000-0 -44006-5 0  9991
2 25291  86.3969 162.0599 0001911  84.2036 275.9378 14.34221246 26265
IRIDIUM 69 [-]          
1 25319U 98026A   17316.18783895  .00000141  00000-0  39542-4 0  9995
2 25319  86.4024 183.4890 0003392 117.3857 242.7687 14.38702577 24318
IRIDIUM 71 [-]          
1 25320U 98026B   17316.55282706  .00000105  00000-0  27537-4 0  9994
2 25320  86.4000 179.1580 0001759 153.3415 206.7874 14.39115958 24801
IRIDIUM 70 [+]          
1 25342U 98032A   17316.54594515  .00000020  00000-0  13080-6 0  9994
2 25342  86.3969 162.2942 0001823  87.8900 328.0952 14.34221166 20361
IRIDIUM 72 [+]          
1 25343U 98032B   17316.52242650  .00000003  00000-0 -59896-5 0  9999
2 25343  86.3967 161.9058 0001840  83.6682 276.4724 14.34221990 20362
IRIDIUM 73 [-]          
1 25344U 98032C   17316.54170600  .00000159  00000-0  36410-4 0  9994
2 25344  86.4406 140.2940 0001572  83.1658 276.9725 14.49074410 29030
IRIDIUM 75 [+]          
1 25346U 98032E   17316.52877594  .00000011  00000-0 -30057-5 0  9990
2 25346  86.3971 162.1607 0001861  83.2189 276.9218 14.34221908 20939
IRIDIUM 3 [+]           
1 25431U 98048A   17316.26101288  .00000154  00000-0  47920-4 0  9996
2 25431  86.4002 193.8321 0001825  85.9964  53.1140 14.34221477  6848
IRIDIUM 76 [+]          
1 25432U 98048B   17316.25311198  .00000160  00000-0  50108-4 0  9998
2 25432  86.3998 193.5847 0001916  78.3894 281.7517 14.34216722  6812
IRIDIUM 82 [-]          
1 25467U 98051A   17316.48577213  .00001002  00000-0  74340-4 0  9997
2 25467  86.3973 312.8606 0180723 222.0387 136.6857 14.89580738  8910
IRIDIUM 81 [+]          
1 25468U 98051B   17316.53727161  .00000063  00000-0  14036-4 0  9995
2 25468  86.4201 319.8051 0002218  83.7501 276.3950 14.38610242  4177
IRIDIUM 80 [+]          
1 25469U 98051C   17316.51648542 -.00000007  00000-0 -95817-5 0  9996
2 25469  86.3927 320.0862 0002505 100.0691   9.8919 14.34216971  4090
IRIDIUM 2 [-]           
1 25527U 98066A   17316.50250808  .00001778  00000-0  88192-4 0  9991
2 25527  85.5270 304.6732 0006541 264.8621  95.1873 15.16971842 40359
IRIDIUM 86 [+]          
1 25528U 98066B   17316.44100348  .00000003  00000-0 -59165-5 0  9998
2 25528  86.3919 287.7889 0001939  84.7897 275.3520 14.34215431   613
IRIDIUM 84 [+]          
1 25530U 98066D   17316.47271074  .00000004  00000-0 -57145-5 0  9996
2 25530  86.3920 287.9429 0002101  81.0445 279.0988 14.34215522998257
IRIDIUM 83 [+]          
1 25531U 98066E   17316.43465498  .00000014  00000-0 -22400-5 0  9995
2 25531  86.3923 288.0904 0002166  82.1674 277.9767 14.34215740995608
IRIDIUM 20 [+]          
1 25577U 98074A   17316.28482989  .00000158  00000-0  49358-4 0  9999
2 25577  86.3998 193.4910 0001944  85.1017 275.0401 14.34222132989669
IRIDIUM 11 [+]          
1 25578U 98074B   17316.25433940  .00000159  00000-0  49543-4 0  9997
2 25578  86.3997 193.7039 0002007  87.1220  50.2371 14.34223810998622
IRIDIUM 14 [+]          
1 25777U 99032A   17316.47804453  .00000006  00000-0 -49853-5 0  9995
2 25777  86.3969 162.0108 0001774  84.7897 275.3501 14.34221358975930
IRIDIUM 21 [+]          
1 25778U 99032B   17316.51608200 -.00000001  00000-0 -74720-5 0  9990
2 25778  86.3968 162.0118 0001921  78.8412 281.2999 14.34222075969377
IRIDIUM 91 [+]          
1 27372U 02005A   17316.37201612  .00000222  00000-0  72093-4 0  9999
2 27372  86.4005 225.2124 0001720  74.0298  63.7752 14.34213436832862
IRIDIUM 90 [S]          
1 27373U 02005B   17316.45383166  .00000018  00000-0 -53671-6 0  9991
2 27373  86.4433 288.0726 0002000  82.3804 277.7624 14.42943668832737
IRIDIUM 94 [+]          
1 27374U 02005C   17316.40925670  .00000148  00000-0  45628-4 0  9993
2 27374  86.4001 193.7723 0001376  71.6169  46.9195 14.34215162837194
IRIDIUM 95 [+]          
1 27375U 02005D   17316.31364902  .00000193  00000-0  62007-4 0  9999
2 27375  86.4002 225.2542 0001968  57.1398 302.9987 14.34216821832143
IRIDIUM 96 [+]          
1 27376U 02005E   17316.43120586  .00000174  00000-0  55097-4 0  9991
2 27376  86.3995 257.2632 0002768  60.7416 299.4056 14.34217924837360
IRIDIUM 97 [+]          
1 27450U 02031A   17316.32971483  .00000018  00000-0 -77635-6 0  9993
2 27450  86.3963 256.9290 0002297  81.6300 278.5156 14.34215439811466
IRIDIUM 98 [+]          
1 27451U 02031B   17316.50157289  .00000009  00000-0 -37253-5 0  9995
2 27451  86.3921 320.1798 0001905 100.0012 260.1399 14.34217480812565
